{
    "links": {
        "self": "http://www.neowsapp.com/rest/v1/neo/3778064?api_key=iIulBulltgU6a56xZRHN4H3l9WmuAYTsLGpBGhQ2"
    },
    "id": "3778064",
    "neo_reference_id": "3778064",
    "name": "(2017 OE1)",
    "designation": "2017 OE1",
    "nasa_jpl_url": "http://ssd.jpl.nasa.gov/sbdb.cgi?sstr=3778064",
    "absolute_magnitude_h": 24.5,
    "estimated_diameter": {
        "kilometers": {
            "estimated_diameter_min": 0.0334622374,
            "estimated_diameter_max": 0.0748238376
        },
        "meters": {
            "estimated_diameter_min": 33.4622374455,
            "estimated_diameter_max": 74.8238376074
        },
        "miles": {
            "estimated_diameter_min": 0.0207924639,
            "estimated_diameter_max": 0.0464933628
        },
        "feet": {
            "estimated_diameter_min": 109.7842471007,
            "estimated_diameter_max": 245.4850393757
        }
    },
    "is_potentially_hazardous_asteroid": false,
    "close_approach_data": [
        {
            "close_approach_date": "2017-07-25",
            "close_approach_date_full": "2017-Jul-25 20:30",
            "epoch_date_close_approach": 1501014600000,
            "relative_velocity": {
                "kilometers_per_second": "17.309538845",
                "kilometers_per_hour": "62314.3398418625",
                "miles_per_hour": "38719.7074422951"
            },
            "miss_distance": {
                "astronomical": "0.0221829603",
                "lunar": "8.6291715567",
                "kilometers": "3318523.611174561",
                "miles": "2062034.9541525018"
            },
            "orbiting_body": "Earth"
        }
    ],
    "orbital_data": {
        "orbit_id": "1",
        "orbit_determination_date": "2017-07-22 16:12:05",
        "first_observation_date": "2017-07-20",
        "last_observation_date": "2017-07-22",
        "data_arc_in_days": 2,
        "observations_used": 18,
        "orbit_uncertainty": "8",
        "minimum_orbit_intersection": ".00475567",
        "jupiter_tisserand_invariant": "3.157",
        "epoch_osculation": "2457956.5",
        "eccentricity": ".6816151565066174",
        "semi_major_axis": "2.407289902411263",
        "inclination": "1.019504084963504",
        "ascending_node_longitude": "90.44054011965656",
        "orbital_period": "1364.24075092515",
        "perihelion_distance": ".7664446188224101",
        "perihelion_argument": "280.7472024412024",
        "aphelion_distance": "4.048135186000115",
        "perihelion_time": "2458003.648501030485",
        "mean_anomaly": "347.5583101007178",
        "mean_motion": ".263883042458502",
        "equinox": "J2000",
        "orbit_class": {
            "orbit_class_type": "APO",
            "orbit_class_description": "Near-Earth asteroid orbits which cross the Earth’s orbit similar to that of 1862 Apollo",
            "orbit_class_range": "a (semi-major axis) > 1.0 AU; q (perihelion) < 1.017 AU"
        }
    },
    "is_sentry_object": false
}